start=new Date('2021-08-27T00:00:00.000Z').valueOf();
sats=[{"REV_AT_EPOCH":"9021","BSTAR":"0.00000044658000","TIME_SYSTEM":"UTC","OBJECT_ID":"2020-001S","COUNTRY_CODE":"US","INCLINATION":"53.0547","OBJECT_NAME":"STARLINK-1123","PERIAPSIS":"546.563","CENTER_NAME":"EARTH","MEAN_MOTION":"15.06407595","RA_OF_ASC_NODE":"221.8281","OBJECT_TYPE":"PAYLOAD","DECAY_DATE":null,"MEAN_MOTION_DOT":"-0.00000275","EPOCH":"2021-08-26T10:32:26.550816","ELEMENT_SET_NO":"999","MEAN_MOTION_DDOT":"0.0000000000000","NORAD_CAT_ID":"44930","ECCENTRICITY":"0.00009060","ARG_OF_PERICENTER":"58.8241","GP_ID":"183472582","MEAN_ANOMALY":"301.2836","SITE":"AFETR","FILE":"3103463","APOAPSIS":"547.818","EPHEMERIS_TYPE":"0","PERIOD":"95.592","TLE_LINE2":"2 44930  53.0547 221.8281 0000906  58.8241 301.2836 15.06407595 90210","CLASSIFICATION_TYPE":"U","REF_FRAME":"TEME","RCS_SIZE":"LARGE","LAUNCH_DATE":"2020-01-07","SEMIMAJOR_AXIS":"6925.325","MEAN_ELEMENT_THEORY":"SGP4","TLE_LINE1":"1 44930U 20001S   21238.43919619 -.00000275  00000-0  44658-6 0  9999"},{"MEAN_MOTION":"15.06386923","CENTER_NAME":"EARTH","PERIAPSIS":"546.669","RA_OF_ASC_NODE":"222.2203","TIME_SYSTEM":"UTC","OBJECT_ID":"2020-001T","BSTAR":"0.00006342900000","REV_AT_EPOCH":"9094","INCLINATION":"53.0526","OBJECT_NAME":"STARLINK-1128","COUNTRY_CODE":"US","TLE_LINE2":"2 44931  53.0526 222.2203 0000844  52.8067 307.2999 15.06386923 90945","CLASSIFICATION_TYPE":"U","RCS_SIZE":"LARGE","REF_FRAME":"TEME","EPHEMERIS_TYPE":"0","APOAPSIS":"547.838","PERIOD":"95.593","TLE_LINE1":"1 44931U 20001T   21238.35074004  .00000663  00000-0  63429-4 0  9996","MEAN_ELEMENT_THEORY":"SGP4","SEMIMAJOR_AXIS":"6925.389","LAUNCH_DATE":"2020-01-07","MEAN_MOTION_DOT":"0.00000663","EPOCH":"2021-08-26T08:25:03.939456","OBJECT_TYPE":"PAYLOAD","DECAY_DATE":null,"ARG_OF_PERICENTER":"52.8067","ECCENTRICITY":"0.00008440","FILE":"3103463","SITE":"AFETR","GP_ID":"183471334","MEAN_ANOMALY":"307.2999","ELEMENT_SET_NO":"999","MEAN_MOTION_DDOT":"0.0000000000000","NORAD_CAT_ID":"44931"},{"RA_OF_ASC_NODE":"222.7715","CENTER_NAME":"EARTH","PERIAPSIS":"546.702","MEAN_MOTION":"15.06390843","COUNTRY_CODE":"US","OBJECT_NAME":"STARLINK-1130","INCLINATION":"53.0549","BSTAR":"0.00006973000000","REV_AT_EPOCH":"9141","OBJECT_ID":"2020-001U","TIME_SYSTEM":"UTC","SEMIMAJOR_AXIS":"6925.377","LAUNCH_DATE":"2020-01-07","TLE_LINE1":"1 44932U 20001U   21238.22910394  .00000757  00000-0  69730-4 0  9999","MEAN_ELEMENT_THEORY":"SGP4","PERIOD":"95.593","EPHEMERIS_TYPE":"0","APOAPSIS":"547.781","RCS_SIZE":"LARGE","REF_FRAME":"TEME","TLE_LINE2":"2 44932  53.0549 222.7715 0000779  44.7563 315.3489 15.06390843 91415","CLASSIFICATION_TYPE":"U","NORAD_CAT_ID":"44932","MEAN_MOTION_DDOT":"0.0000000000000","ELEMENT_SET_NO":"999","FILE":"3103463","MEAN_ANOMALY":"315.3489","GP_ID":"183472084","SITE":"AFETR","ARG_OF_PERICENTER":"44.7563","ECCENTRICITY":"0.00007790","DECAY_DATE":null,"OBJECT_TYPE":"PAYLOAD","EPOCH":"2021-08-26T05:29:54.580416","MEAN_MOTION_DOT":"0.00000757"},{"BSTAR":"0.00005857200000","REV_AT_EPOCH":"9149","TIME_SYSTEM":"UTC","OBJECT_ID":"2020-001V","COUNTRY_CODE":"US","INCLINATION":"53.0536","OBJECT_NAME":"STARLINK-1144","CENTER_NAME":"EARTH","PERIAPSIS":"546.660","MEAN_MOTION":"15.06399363","RA_OF_ASC_NODE":"222.0548","OBJECT_TYPE":"PAYLOAD","DECAY_DATE":null,"MEAN_MOTION_DOT":"0.00000591","EPOCH":"2021-08-26T09:18:09.563616","MEAN_MOTION_DDOT":"0.0000000000000","ELEMENT_SET_NO":"999","NORAD_CAT_ID":"44933","ARG_OF_PERICENTER":"47.7201","ECCENTRICITY":"0.00008020","FILE":"3103463","MEAN_ANOMALY":"312.3856","GP_ID":"183472336","SITE":"AFETR","EPHEMERIS_TYPE":"0","APOAPSIS":"547.771","PERIOD":"95.592","CLASSIFICATION_TYPE":"U","TLE_LINE2":"2 44933  53.0536 222.0548 0000802  47.7201 312.3856 15.06399363 91497","RCS_SIZE":"LARGE","REF_FRAME":"TEME","SEMIMAJOR_AXIS":"6925.351","LAUNCH_DATE":"2020-01-07","MEAN_ELEMENT_THEORY":"SGP4","TLE_LINE1":"1 44933U 20001V   21238.38761069  .00000591  00000-0  58572-4 0  9998"},{"EPOCH":"2021-08-26T14:23:21.083712","MEAN_MOTION_DOT":"0.00000003","DECAY_DATE":null,"OBJECT_TYPE":"PAYLOAD","FILE":"3103480","GP_ID":"183495310","SITE":"AFETR","MEAN_ANOMALY":"292.8963","ARG_OF_PERICENTER":"67.2202","ECCENTRICITY":"0.00016680","NORAD_CAT_ID":"44934","ELEMENT_SET_NO":"999","MEAN_MOTION_DDOT":"0.0000000000000","RCS_SIZE":"LARGE","REF_FRAME":"TEME","TLE_LINE2":"2 44934  53.0536 201.1038 0001668  67.2202 292.8963 15.06382369 90510","CLASSIFICATION_TYPE":"U","PERIOD":"95.593","EPHEMERIS_TYPE":"0","APOAPSIS":"548.423","MEAN_ELEMENT_THEORY":"SGP4","TLE_LINE1":"1 44934U 20001W   21238.59954958  .00000003  00000-0  19091-4 0  9994","SEMIMAJOR_AXIS":"6925.403","LAUNCH_DATE":"2020-01-07","OBJECT_ID":"2020-001W","TIME_SYSTEM":"UTC","BSTAR":"0.00001909100000","REV_AT_EPOCH":"9051","OBJECT_NAME":"STARLINK-1071","INCLINATION":"53.0536","COUNTRY_CODE":"US","MEAN_MOTION":"15.06382369","CENTER_NAME":"EARTH","PERIAPSIS":"546.112","RA_OF_ASC_NODE":"201.1038"},{"PERIOD":"93.827","APOAPSIS":"462.234","EPHEMERIS_TYPE":"0","REF_FRAME":"TEME","RCS_SIZE":"LARGE","TLE_LINE2":"2 44935  53.0522 200.1555 0000757  97.8870 262.2217 15.34732930 90525","CLASSIFICATION_TYPE":"U","LAUNCH_DATE":"2020-01-07","SEMIMAJOR_AXIS":"6839.851","TLE_LINE1":"1 44935U 20001X   21238.50202418  .00543843  00000-0  14814-1 0  9992","MEAN_ELEMENT_THEORY":"SGP4","DECAY_DATE":null,"OBJECT_TYPE":"PAYLOAD","EPOCH":"2021-08-26T12:02:54.889152","MEAN_MOTION_DOT":"0.00543843","NORAD_CAT_ID":"44935","MEAN_MOTION_DDOT":"0.0000000000000","ELEMENT_SET_NO":"999","GP_ID":"183471834","MEAN_ANOMALY":"262.2217","SITE":"AFETR","FILE":"3103463","ECCENTRICITY":"0.00007570","ARG_OF_PERICENTER":"97.8870","PERIAPSIS":"461.198","CENTER_NAME":"EARTH","MEAN_MOTION":"15.34732930","RA_OF_ASC_NODE":"200.1555","REV_AT_EPOCH":"9052","BSTAR":"0.01481400000000","OBJECT_ID":"2020-001X","TIME_SYSTEM":"UTC","COUNTRY_CODE":"US","OBJECT_NAME":"STARLINK-1072","INCLINATION":"53.0522"},{"MEAN_MOTION":"15.74388628","CENTER_NAME":"EARTH","PERIAPSIS":"344.231","RA_OF_ASC_NODE":"164.3870","TIME_SYSTEM":"UTC","OBJECT_ID":"2020-001Y","BSTAR":"0.00018558000000","REV_AT_EPOCH":"9097","INCLINATION":"53.0635","OBJECT_NAME":"STARLINK-1078","COUNTRY_CODE":"US","TLE_LINE2":"2 44936  53.0635 164.3870 0003186  62.9179 297.2165 15.74388628 90970","CLASSIFICATION_TYPE":"U","RCS_SIZE":"LARGE","REF_FRAME":"TEME","EPHEMERIS_TYPE":"0","APOAPSIS":"348.516","PERIOD":"91.464","MEAN_ELEMENT_THEORY":"SGP4","TLE_LINE1":"1 44936U 20001Y   21237.97280881  .00026876  00000-0  18558-3 0  9996","SEMIMAJOR_AXIS":"6724.508","LAUNCH_DATE":"2020-01-07","MEAN_MOTION_DOT":"0.00026876","EPOCH":"2021-08-25T23:20:50.681184","OBJECT_TYPE":"PAYLOAD","DECAY_DATE":null,"ARG_OF_PERICENTER":"62.9179","ECCENTRICITY":"0.00031860","FILE":"3103463","SITE":"AFETR","GP_ID":"183471585","MEAN_ANOMALY":"297.2165","ELEMENT_SET_NO":"999","MEAN_MOTION_DDOT":"0.0000000000000","NORAD_CAT_ID":"44936"},{"TLE_LINE1":"1 44937U 20001Z   21238.37838910  .00000823  00000-0  74106-4 0  9990","MEAN_ELEMENT_THEORY":"SGP4","SEMIMAJOR_AXIS":"6925.328","LAUNCH_DATE":"2020-01-07","RCS_SIZE":"LARGE","REF_FRAME":"TEME","CLASSIFICATION_TYPE":"U","TLE_LINE2":"2 44937  53.0551 202.0998 0001382  55.3170 304.7949 15.06406834 90487","PERIOD":"95.592","EPHEMERIS_TYPE":"0","APOAPSIS":"548.150","FILE":"3103463","SITE":"AFETR","GP_ID":"183472836","MEAN_ANOMALY":"304.7949","ARG_OF_PERICENTER":"55.3170","ECCENTRICITY":"0.00013820","NORAD_CAT_ID":"44937","MEAN_MOTION_DDOT":"0.0000000000000","ELEMENT_SET_NO":"999","EPOCH":"2021-08-26T09:04:52.818240","MEAN_MOTION_DOT":"0.00000823","DECAY_DATE":null,"OBJECT_TYPE":"PAYLOAD","RA_OF_ASC_NODE":"202.0998","MEAN_MOTION":"15.06406834","CENTER_NAME":"EARTH","PERIAPSIS":"546.236","OBJECT_NAME":"STARLINK-1079","INCLINATION":"53.0551","COUNTRY_CODE":"US","OBJECT_ID":"2020-001Z","TIME_SYSTEM":"UTC","BSTAR":"0.00007410600000","REV_AT_EPOCH":"9048"},{"TIME_SYSTEM":"UTC","OBJECT_ID":"2020-001AA","BSTAR":"-0.00003924200000","REV_AT_EPOCH":"9051","INCLINATION":"53.0536","OBJECT_NAME":"STARLINK-1082","COUNTRY_CODE":"US","MEAN_MOTION":"15.06394288","CENTER_NAME":"EARTH","PERIAPSIS":"546.192","RA_OF_ASC_NODE":"201.0517","MEAN_MOTION_DOT":"-0.00000866","EPOCH":"2021-08-26T14:39:14.786784","OBJECT_TYPE":"PAYLOAD","DECAY_DATE":null,"ARG_OF_PERICENTER":"69.6007","ECCENTRICITY":"0.00015010","FILE":"3103480","GP_ID":"183494811","MEAN_ANOMALY":"290.5143","SITE":"AFETR","ELEMENT_SET_NO":"999","MEAN_MOTION_DDOT":"0.0000000000000","NORAD_CAT_ID":"44938","CLASSIFICATION_TYPE":"U","TLE_LINE2":"2 44938  53.0536 201.0517 0001501  69.6007 290.5143 15.06394288 90518","RCS_SIZE":"LARGE","REF_FRAME":"TEME","EPHEMERIS_TYPE":"0","APOAPSIS":"548.271","PERIOD":"95.593","MEAN_ELEMENT_THEORY":"SGP4","TLE_LINE1":"1 44938U 20001AA  21238.61058781 -.00000866  00000-0 -39242-4 0  9999","SEMIMAJOR_AXIS":"6925.366","LAUNCH_DATE":"2020-01-07"},{"PERIOD":"95.592","EPHEMERIS_TYPE":"0","APOAPSIS":"548.146","RCS_SIZE":"LARGE","REF_FRAME":"TEME","TLE_LINE2":"2 44939  53.0551 201.0253 0001346  59.1996 300.9125 15.06399769 90516","CLASSIFICATION_TYPE":"U","SEMIMAJOR_AXIS":"6925.349","LAUNCH_DATE":"2020-01-07","MEAN_ELEMENT_THEORY":"SGP4","TLE_LINE1":"1 44939U 20001AB  21238.61795299  .00000820  00000-0  73966-4 0  9991","DECAY_DATE":null,"OBJECT_TYPE":"PAYLOAD","EPOCH":"2021-08-26T14:49:51.138336","MEAN_MOTION_DOT":"0.00000820","NORAD_CAT_ID":"44939","MEAN_MOTION_DDOT":"0.0000000000000","ELEMENT_SET_NO":"999","FILE":"3103480","GP_ID":"183496062","SITE":"AFETR","MEAN_ANOMALY":"300.9125","ARG_OF_PERICENTER":"59.1996","ECCENTRICITY":"0.00013460","CENTER_NAME":"EARTH","PERIAPSIS":"546.282","MEAN_MOTION":"15.06399769","RA_OF_ASC_NODE":"201.0253","BSTAR":"0.00007396600000","REV_AT_EPOCH":"9051","OBJECT_ID":"2020-001AB","TIME_SYSTEM":"UTC","COUNTRY_CODE":"US","OBJECT_NAME":"STARLINK-1083","INCLINATION":"53.0551"}];
